{"spkid": "54235430", "covariance": {"elements": [{"value": ".5384730641318766", "title": "eccentricity", "units": null, "sigma": 1.5769482845353e-07, "name": "e", "label": "e"}, {"title": "perihelion distance", "value": ".5318246991456493", "units": "au", "name": "q", "sigma": 1.89827618691657e-07, "label": "q"}, {"label": "tp", "name": "tp", "sigma": 4.74045107152092e-05, "value": "2459064.612122344031", "title": "time of perihelion passage", "units": "TDB"}, {"value": "77.93693811517899", "title": "longitude of the ascending node", "units": "deg", "name": "om", "sigma": 5.97035717242173e-05, "label": "node"}, {"label": "peri", "sigma": 4.91356632422031e-05, "name": "w", "units": "deg", "title": "argument of perihelion", "value": "260.4936694188095"}, {"title": "inclination", "value": "5.851744491104694", "units": "deg", "sigma": 4.53519871987958e-06, "name": "i", "label": "i"}], "data": [["2.486765892098838E-14", "-2.993262677990557E-14", "7.21753308893836E-12", "5.887144785518265E-12", "-2.779998327911116E-12", "5.28094136636927E-14"], ["-2.993262677990557E-14", "3.603452481814521E-14", "-8.702232912836715E-12", "-7.079876052563326E-12", "3.337611872061723E-12", "-6.255743709040421E-14"], ["7.21753308893836E-12", "-8.702232912836715E-12", "2.247187636148384E-9", "1.766136676280147E-9", "-7.99895820239917E-10", "1.63368157543016E-11"], ["5.887144785518265E-12", "-7.079876052563326E-12", "1.766136676280147E-9", "3.564516476628755E-9", "-2.772607490441189E-9", "-3.022055231656322E-11"], ["-2.779998327911116E-12", "3.337611872061723E-12", "-7.99895820239917E-10", "-2.772607490441189E-9", "2.414313402251192E-9", "3.729465412013169E-11"], ["5.28094136636927E-14", "-6.255743709040421E-14", "1.63368157543016E-11", "-3.022055231656322E-11", "3.729465412013169E-11", "2.056802742879742E-11"]], "labels": ["e", "q", "tp", "node", "peri", "i"], "epoch": "2459037.5"}, "elements": [{"label": "e", "title": "eccentricity", "value": ".5382643992697471", "units": null, "name": "e", "sigma": "1.6E-7"}, {"name": "a", "sigma": "9.8403E-9", "units": "au", "value": "1.151535858402519", "title": "semi-major axis", "label": "a"}, {"label": "q", "name": "q", "sigma": "1.8832E-7", "title": "perihelion distance", "value": ".5317051013419146", "units": "au"}, {"label": "i", "title": "inclination; angle with respect to x-y ecliptic plane", "value": "5.857165791534407", "units": "deg", "sigma": "4.5373E-6", "name": "i"}, {"label": "node", "name": "om", "sigma": "5.9975E-5", "units": "deg", "value": "77.85917840710803", "title": "longitude of the ascending node"}, {"sigma": "4.8972E-5", "name": "w", "units": "deg", "value": "260.487459716727", "title": "argument of perihelion", "label": "peri"}, {"label": "M", "name": "ma", "sigma": "8.6656E-6", "units": "deg", "title": "mean anomaly", "value": "262.3106125043995"}, {"name": "tp", "sigma": "1.0736E-5", "value": "2461322.978402210230", "title": "time of perihelion passage", "units": "TDB", "label": "tp"}, {"sigma": "5.7854E-6", "name": "per", "title": "sidereal orbital period", "value": "451.3512258193722", "units": "d", "label": "period"}, {"name": "n", "sigma": "1.0224E-8", "title": "mean motion", "value": ".7976050122528516", "units": "deg/d", "label": "n"}, {"name": "ad", "sigma": "1.5137E-8", "value": "1.771366615463124", "title": "aphelion distance", "units": "au", "label": "Q"}], "epoch": "2461200.5"}